0 SL-8 R/B
1 16799U 86047B   13282.17866459  .00000040  00000-0  23931-4 0  8769
2 16799 082.9235 004.1194 0067876 084.5504 293.6898 13.77135393305849
0 SL-8 R/B
1 16799U 86047B   13286.77928816  .00000077  00000-0  61129-4 0  8788
2 16799 082.9231 000.6893 0067784 071.9089 061.9102 13.77135419306471
0 SL-8 R/B
1 16799U 86047B   13289.16182668  .00000074  00000-0  57920-4 0  8793
2 16799 082.9226 358.9130 0067627 065.3086 353.7235 13.77135630306809
0 SL-8 R/B
1 16799U 86047B   13291.19641245  .00000058  00000-0  41695-4 0  8806
2 16799 082.9221 357.3959 0067568 059.7192 000.4601 13.77135912307082
0 SL-8 R/B
1 16799U 86047B   13293.37916510  .00000036  00000-0  19818-4 0  8817
2 16799 082.9219 355.7681 0067457 053.7004 021.7791 13.77136129307386
0 SL-8 R/B
1 16799U 86047B   13295.48929953  .00000033  00000-0  17149-4 0  8829
2 16799 082.9218 354.1944 0067326 047.8627 043.1032 13.77136258307671
